SPACEWAY 2              
1 28903U 05046B   17345.35118587 -.00000133  00000-0  00000+0 0  9992
2 28903   0.0435 141.3451 0000425 192.0263 134.2451  1.00269325 44319
